CCSDS_OMM_VERS = 2.0
CREATION_DATE  = 
ORIGINATOR     = 

OBJECT_NAME    = STARLINK-35686
OBJECT_ID      = 2025-257AD
CENTER_NAME    = EARTH
REF_FRAME      = TEME
TIME_SYSTEM    = UTC
MEAN_ELEMENT_THEORY = SGP/SGP4

EPOCH          = 2025-11-26T22:00:05.999904
MEAN_MOTION    = 15.60023331
ECCENTRICITY   = .0001419
INCLINATION    = 53.1600
RA_OF_ASC_NODE = 339.5071
ARG_OF_PERICENTER = 75.4668
MEAN_ANOMALY   = 24.2569

EPHEMERIS_TYPE = 0
CLASSIFICATION_TYPE = U
NORAD_CAT_ID   = 66407
ELEMENT_SET_NO = 999
REV_AT_EPOCH   = 395
BSTAR          = -.26758257E-1
MEAN_MOTION_DOT = -.1943644E-1
MEAN_MOTION_DDOT = 0

CCSDS_OMM_VERS = 2.0
CREATION_DATE  = 
ORIGINATOR     = 

OBJECT_NAME    = STARLINK-35679
OBJECT_ID      = 2025-257AE
CENTER_NAME    = EARTH
REF_FRAME      = TEME
TIME_SYSTEM    = UTC
MEAN_ELEMENT_THEORY = SGP/SGP4

EPOCH          = 2025-11-26T22:00:05.999904
MEAN_MOTION    = 15.60048678
ECCENTRICITY   = .00013285
INCLINATION    = 53.1598
RA_OF_ASC_NODE = 339.5044
ARG_OF_PERICENTER = 82.5853
MEAN_ANOMALY   = 19.0372

EPHEMERIS_TYPE = 0
CLASSIFICATION_TYPE = U
NORAD_CAT_ID   = 66408
ELEMENT_SET_NO = 999
REV_AT_EPOCH   = 395
BSTAR          = -.27139158E-1
MEAN_MOTION_DOT = -.1969581E-1
MEAN_MOTION_DDOT = 0

CCSDS_OMM_VERS = 2.0
CREATION_DATE  = 
ORIGINATOR     = 

OBJECT_NAME    = CHUTIAN-2 A
OBJECT_ID      = 2025-256A
CENTER_NAME    = EARTH
REF_FRAME      = TEME
TIME_SYSTEM    = UTC
MEAN_ELEMENT_THEORY = SGP/SGP4

EPOCH          = 2025-11-26T23:47:44.462112
MEAN_MOTION    = 14.49905467
ECCENTRICITY   = .00128558
INCLINATION    = 98.2783
RA_OF_ASC_NODE = 36.0309
ARG_OF_PERICENTER = 226.7779
MEAN_ANOMALY   = 133.2343

EPHEMERIS_TYPE = 0
CLASSIFICATION_TYPE = U
NORAD_CAT_ID   = 66409
ELEMENT_SET_NO = 999
REV_AT_EPOCH   = 259
BSTAR          = .27511259E-4
MEAN_MOTION_DOT = .62E-6
MEAN_MOTION_DDOT = 0

CCSDS_OMM_VERS = 2.0
CREATION_DATE  = 
ORIGINATOR     = 

OBJECT_NAME    = CHUTIAN-2 B
OBJECT_ID      = 2025-256B
CENTER_NAME    = EARTH
REF_FRAME      = TEME
TIME_SYSTEM    = UTC
MEAN_ELEMENT_THEORY = SGP/SGP4

EPOCH          = 2025-11-26T23:37:54.821856
MEAN_MOTION    = 14.50992673
ECCENTRICITY   = .00129491
INCLINATION    = 98.2813
RA_OF_ASC_NODE = 36.0452
ARG_OF_PERICENTER = 230.9012
MEAN_ANOMALY   = 129.1032

EPHEMERIS_TYPE = 0
CLASSIFICATION_TYPE = U
NORAD_CAT_ID   = 66410
ELEMENT_SET_NO = 999
REV_AT_EPOCH   = 259
BSTAR          = .21036368E-3
MEAN_MOTION_DOT = .788E-5
MEAN_MOTION_DDOT = 0

CCSDS_OMM_VERS = 2.0
CREATION_DATE  = 
ORIGINATOR     = 

OBJECT_NAME    = ZK-1A R/B
OBJECT_ID      = 2025-256C
CENTER_NAME    = EARTH
REF_FRAME      = TEME
TIME_SYSTEM    = UTC
MEAN_ELEMENT_THEORY = SGP/SGP4

EPOCH          = 2025-11-20T17:22:35.449824
MEAN_MOTION    = 15.01236100
ECCENTRICITY   = .02323532
INCLINATION    = 98.3243
RA_OF_ASC_NODE = 30.9055
ARG_OF_PERICENTER = 318.4537
MEAN_ANOMALY   = 39.9225

EPHEMERIS_TYPE = 0
CLASSIFICATION_TYPE = U
NORAD_CAT_ID   = 66411
ELEMENT_SET_NO = 999
REV_AT_EPOCH   = 174
BSTAR          = .48987823E-3
MEAN_MOTION_DOT = .11214E-3
MEAN_MOTION_DDOT = 0

CCSDS_OMM_VERS = 2.0
CREATION_DATE  = 
ORIGINATOR     = 

OBJECT_NAME    = HULIANWANG DIGUI 13A
OBJECT_ID      = 2025-258A
CENTER_NAME    = EARTH
REF_FRAME      = TEME
TIME_SYSTEM    = UTC
MEAN_ELEMENT_THEORY = SGP/SGP4

EPOCH          = 2025-11-26T23:35:32.076960
MEAN_MOTION    = 14.23486838
ECCENTRICITY   = .00141188
INCLINATION    = 50.0030
RA_OF_ASC_NODE = 328.2832
ARG_OF_PERICENTER = 302.6115
MEAN_ANOMALY   = 57.3435

EPHEMERIS_TYPE = 0
CLASSIFICATION_TYPE = U
NORAD_CAT_ID   = 66412
ELEMENT_SET_NO = 999
REV_AT_EPOCH   = 241
BSTAR          = -.11956451E-4
MEAN_MOTION_DOT = -.187E-5
MEAN_MOTION_DDOT = 0

CCSDS_OMM_VERS = 2.0
CREATION_DATE  = 
ORIGINATOR     = 

OBJECT_NAME    = HULIANWANG DIGUI 13B
OBJECT_ID      = 2025-258B
CENTER_NAME    = EARTH
REF_FRAME      = TEME
TIME_SYSTEM    = UTC
MEAN_ELEMENT_THEORY = SGP/SGP4

EPOCH          = 2025-11-26T22:05:25.239264
MEAN_MOTION    = 14.23478551
ECCENTRICITY   = .00134239
INCLINATION    = 50.0008
RA_OF_ASC_NODE = 328.6074
ARG_OF_PERICENTER = 302.5672
MEAN_ANOMALY   = 57.3944

EPHEMERIS_TYPE = 0
CLASSIFICATION_TYPE = U
NORAD_CAT_ID   = 66413
ELEMENT_SET_NO = 999
REV_AT_EPOCH   = 240
BSTAR          = -.28114517E-4
MEAN_MOTION_DOT = -.224E-5
MEAN_MOTION_DDOT = 0

CCSDS_OMM_VERS = 2.0
CREATION_DATE  = 
ORIGINATOR     = 

OBJECT_NAME    = HULIANWANG DIGUI 13C
OBJECT_ID      = 2025-258C
CENTER_NAME    = EARTH
REF_FRAME      = TEME
TIME_SYSTEM    = UTC
MEAN_ELEMENT_THEORY = SGP/SGP4

EPOCH          = 2025-11-26T23:42:08.013600
MEAN_MOTION    = 14.23502947
ECCENTRICITY   = .00136245
INCLINATION    = 50.0051
RA_OF_ASC_NODE = 328.3091
ARG_OF_PERICENTER = 301.0336
MEAN_ANOMALY   = 58.9239

EPHEMERIS_TYPE = 0
CLASSIFICATION_TYPE = U
NORAD_CAT_ID   = 66414
ELEMENT_SET_NO = 999
REV_AT_EPOCH   = 241
BSTAR          = -.17217817E-4
MEAN_MOTION_DOT = -.199E-5
MEAN_MOTION_DDOT = 0

CCSDS_OMM_VERS = 2.0
CREATION_DATE  = 
ORIGINATOR     = 

OBJECT_NAME    = HULIANWANG DIGUI 13D
OBJECT_ID      = 2025-258D
CENTER_NAME    = EARTH
REF_FRAME      = TEME
TIME_SYSTEM    = UTC
MEAN_ELEMENT_THEORY = SGP/SGP4

EPOCH          = 2025-11-26T23:33:32.351616
MEAN_MOTION    = 14.23491387
ECCENTRICITY   = .00133557
INCLINATION    = 50.0045
RA_OF_ASC_NODE = 328.2756
ARG_OF_PERICENTER = 307.5074
MEAN_ANOMALY   = 52.4624

EPHEMERIS_TYPE = 0
CLASSIFICATION_TYPE = U
NORAD_CAT_ID   = 66415
ELEMENT_SET_NO = 999
REV_AT_EPOCH   = 241
BSTAR          = .19514759E-4
MEAN_MOTION_DOT = -.115E-5
MEAN_MOTION_DDOT = 0

CCSDS_OMM_VERS = 2.0
CREATION_DATE  = 
ORIGINATOR     = 

OBJECT_NAME    = HULIANWANG DIGUI 13E
OBJECT_ID      = 2025-258E
CENTER_NAME    = EARTH
REF_FRAME      = TEME
TIME_SYSTEM    = UTC
MEAN_ELEMENT_THEORY = SGP/SGP4

EPOCH          = 2025-11-26T23:39:27.943776
MEAN_MOTION    = 14.23464038
ECCENTRICITY   = .00127496
INCLINATION    = 50.0061
RA_OF_ASC_NODE = 328.3005
ARG_OF_PERICENTER = 308.9302
MEAN_ANOMALY   = 51.0474

EPHEMERIS_TYPE = 0
CLASSIFICATION_TYPE = U
NORAD_CAT_ID   = 66416
ELEMENT_SET_NO = 999
REV_AT_EPOCH   = 241
BSTAR          = -.8204076E-5
MEAN_MOTION_DOT = -.178E-5
MEAN_MOTION_DDOT = 0

CCSDS_OMM_VERS = 2.0
CREATION_DATE  = 
ORIGINATOR     = 

OBJECT_NAME    = HULIANWANG DIGUI 13F
OBJECT_ID      = 2025-258F
CENTER_NAME    = EARTH
REF_FRAME      = TEME
TIME_SYSTEM    = UTC
MEAN_ELEMENT_THEORY = SGP/SGP4

EPOCH          = 2025-11-26T23:37:33.925152
MEAN_MOTION    = 14.23472004
ECCENTRICITY   = .00124289
INCLINATION    = 50.0002
RA_OF_ASC_NODE = 328.2755
ARG_OF_PERICENTER = 307.0869
MEAN_ANOMALY   = 52.8907

EPHEMERIS_TYPE = 0
CLASSIFICATION_TYPE = U
NORAD_CAT_ID   = 66417
ELEMENT_SET_NO = 999
REV_AT_EPOCH   = 241
BSTAR          = -.715645E-6
MEAN_MOTION_DOT = -.161E-5
MEAN_MOTION_DDOT = 0

CCSDS_OMM_VERS = 2.0
CREATION_DATE  = 
ORIGINATOR     = 

OBJECT_NAME    = HULIANWANG DIGUI 13G
OBJECT_ID      = 2025-258G
CENTER_NAME    = EARTH
REF_FRAME      = TEME
TIME_SYSTEM    = UTC
MEAN_ELEMENT_THEORY = SGP/SGP4

EPOCH          = 2025-11-26T23:31:36.035616
MEAN_MOTION    = 14.23483063
ECCENTRICITY   = .00124489
INCLINATION    = 50.0008
RA_OF_ASC_NODE = 328.2523
ARG_OF_PERICENTER = 303.0558
MEAN_ANOMALY   = 56.9159

EPHEMERIS_TYPE = 0
CLASSIFICATION_TYPE = U
NORAD_CAT_ID   = 66418
ELEMENT_SET_NO = 999
REV_AT_EPOCH   = 241
BSTAR          = .28691818E-4
MEAN_MOTION_DOT = -.94E-6
MEAN_MOTION_DDOT = 0

