STARLINK-35686          
1 66407U 25257AD  25330.91673611 -.01943644  00000+0 -26758-1 0  9992
2 66407  53.1600 339.5071 0001419  75.4668  24.2569 15.60023331  3958
STARLINK-35679          
1 66408U 25257AE  25330.91673611 -.01969581  00000+0 -27139-1 0  9995
2 66408  53.1598 339.5044 0001328  82.5853  19.0372 15.60048678  3954
CHUTIAN-2 A             
1 66409U 25256A   25330.99148683  .00000062  00000+0  27511-4 0  9993
2 66409  98.2783  36.0309 0012855 226.7779 133.2343 14.49905467  2590
CHUTIAN-2 B             
1 66410U 25256B   25330.98466229  .00000788  00000+0  21036-3 0  9993
2 66410  98.2813  36.0452 0012949 230.9012 129.1032 14.50992673  2592
ZK-1A R/B               
1 66411U 25256C   25324.72402141  .00011214  00000+0  48988-3 0  9993
2 66411  98.3243  30.9055 0232353 318.4537  39.9225 15.01236100  1741
HULIANWANG DIGUI 13A    
1 66412U 25258A   25330.98301015 -.00000187  00000+0 -11956-4 0  9994
2 66412  50.0030 328.2832 0014118 302.6115  57.3435 14.23486838  2411
HULIANWANG DIGUI 13B    
1 66413U 25258B   25330.92043101 -.00000224  00000+0 -28115-4 0  9995
2 66413  50.0008 328.6074 0013423 302.5672  57.3944 14.23478551  2401
HULIANWANG DIGUI 13C    
1 66414U 25258C   25330.98759275 -.00000199  00000+0 -17218-4 0  9991
2 66414  50.0051 328.3091 0013624 301.0336  58.9239 14.23502947  2412
HULIANWANG DIGUI 13D    
1 66415U 25258D   25330.98162444 -.00000115  00000+0  19515-4 0  9997
2 66415  50.0045 328.2756 0013355 307.5074  52.4624 14.23491387  2416
HULIANWANG DIGUI 13E    
1 66416U 25258E   25330.98574009 -.00000178  00000+0 -82041-5 0  9997
2 66416  50.0061 328.3005 0012749 308.9302  51.0474 14.23464038  2419
HULIANWANG DIGUI 13F    
1 66417U 25258F   25330.98442043 -.00000161  00000+0 -71564-6 0  9991
2 66417  50.0002 328.2755 0012428 307.0869  52.8907 14.23472004  2410
HULIANWANG DIGUI 13G    
1 66418U 25258G   25330.98027819 -.00000094  00000+0  28692-4 0  9998
2 66418  50.0008 328.2523 0012448 303.0558  56.9159 14.23483063  2414
